QZS-1R                  
1 49336U 21096A   24001.57983049 -.00000269  00000+0  00000+0 0  9991
2 49336  35.6010  93.0931 0756736 271.4722  77.6876  1.00251902  8005
